[
    {
        "Altitude(m)": 607897.6258437829,
        "Argument of Periapsis(deg)": 0.0,
        "Eccentricity": 0.0,
        "Inclination(deg)": 60.0,
        "Latitude(deg)": -14.292997716749474,
        "Longitude(deg)": -168.38126906589213,
        "Mean Anomaly(deg)": -16.363600000000037,
        "RAAN(deg)": 300.0,
        "Satellite Name": "Test1 1341",
        "Satellite Number": 1341,
        "Semi-Major Axis(m)": 6980739.136638005,
        "Time(s)": 0
    },
    {
        "Altitude(m)": 607750.826826166,
        "Argument of Periapsis(deg)": 0.00010418945913296404,
        "Eccentricity": 0.0,
        "Inclination(deg)": 60.0,
        "Latitude(deg)": -13.758839600575133,
        "Longitude(deg)": -168.09419912234821,
        "Mean Anomaly(deg)": -15.743493854538185,
        "RAAN(deg)": 299.99957995086027,
        "Satellite Name": "Test1 1341",
        "Satellite Number": 1341,
        "Semi-Major Axis(m)": 6980739.136638005,
        "Time(s)": 10
    }
]